[{"OBJECT_NAME":"STARLINK-5371","OBJECT_ID":"2023-015AS","EPOCH":"2026-03-09T22:00:01.999584","MEAN_MOTION":15.12745124,"ECCENTRICITY":0.00021545,"INCLINATION":42.9999,"RA_OF_ASC_NODE":337.3574,"ARG_OF_PERICENTER":259.4989,"MEAN_ANOMALY":68.1375,"EPHEMERIS_TYPE":0,"CLASSIFICATION_TYPE":"U","NORAD_CAT_ID":55489,"ELEMENT_SET_NO":999,"REV_AT_EPOCH":577,"BSTAR":0.0026663223,"MEAN_MOTION_DOT":0.00047663,"MEAN_MOTION_DDOT":0},{"OBJECT_NAME":"UNKNOWN","OBJECT_ID":"","EPOCH":"2026-03-09T03:40:49.808928","MEAN_MOTION":15.17985561,"ECCENTRICITY":0.0023398,"INCLINATION":66.7883,"RA_OF_ASC_NODE":96.9262,"ARG_OF_PERICENTER":16.4363,"MEAN_ANOMALY":343.7533,"EPHEMERIS_TYPE":0,"CLASSIFICATION_TYPE":"U","NORAD_CAT_ID":81449,"ELEMENT_SET_NO":999,"REV_AT_EPOCH":64658,"BSTAR":0.0066641,"MEAN_MOTION_DOT":0.00139351,"MEAN_MOTION_DDOT":0}]
